OBJECT_NAME,OBJECT_ID,EPOCH,MEAN_MOTION,ECCENTRICITY,INCLINATION,RA_OF_ASC_NODE,ARG_OF_PERICENTER,MEAN_ANOMALY,EPHEMERIS_TYPE,CLASSIFICATION_TYPE,NORAD_CAT_ID,ELEMENT_SET_NO,REV_AT_EPOCH,BSTAR,MEAN_MOTION_DOT,MEAN_MOTION_DDOT
SL-12 R/B(2),1985-042D,2026-07-16T10:31:02.377344,14.22011021,.0037351,71.1066,175.7152,284.3645,202.0898,0,U,15772,999,13269,.40311E-4,.42E-6,0
SL-14 R/B,1985-069B,2026-07-17T02:57:38.223648,14.86535914,.002014,82.5260,263.2128,121.2886,239.0306,0,U,15945,999,19206,.2185E-4,.219E-5,0
SL-16 R/B,1985-097B,2026-07-17T01:23:30.729984,14.16613647,.0005729,71.0006,228.1908,47.9606,333.0176,0,U,16182,999,10555,.1361E-3,.224E-5,0
SL-14 R/B,1986-006B,2026-07-16T20:41:54.949056,14.86969084,.0075605,82.5283,138.1889,203.2786,156.5002,0,U,16496,999,16840,.22608E-4,.24E-5,0
COSMOS 1743,1986-034A,2026-07-16T18:02:21.674400,15.69743756,.0005456,82.5277,297.2339,171.8650,188.2701,0,U,16719,999,20042,.33033E-3,.39394E-3,0
SL-14 R/B,1986-046B,2026-07-16T20:30:42.058080,14.85691260,.0023667,82.4840,318.1429,157.6459,202.5794,0,U,16792,999,14558,.23967E-4,.233E-5,0
SL-14 R/B,1986-055B,2026-07-16T13:52:07.262112,14.85740804,.0017312,82.5204,5.4962,265.2753,163.3331,0,U,16882,999,13850,.19667E-4,.195E-5,0
AJISAI (EGS),1986-061A,2026-07-17T04:19:42.647808,12.44516667,.001108,50.0102,55.1673,256.9811,217.8126,0,U,16908,999,48412,.34284E-4,-.92E-6,0
SL-14 R/B,1987-024B,2026-07-16T20:11:11.018400,14.86232398,.0017964,82.5299,331.3770,188.2179,171.8746,0,U,17567,999,10731,.2411E-4,.237E-5,0
COSMOS 1833,1987-027A,2026-07-16T21:51:11.547648,14.13067042,.0024354,70.9212,54.3948,5.9443,354.1962,0,U,17589,999,2857,.55441E-4,.56E-6,0
SL-16 R/B,1987-027B,2026-07-16T20:40:28.958592,14.17173992,.0007147,71.0034,4.2944,279.9413,80.0904,0,U,17590,999,3364,.11158E-3,.177E-5,0
SL-14 R/B,1987-038B,2026-07-16T21:39:43.155648,14.85462103,.0020866,82.5014,175.0818,96.9733,263.3857,0,U,17912,999,9841,.20161E-4,.199E-5,0
COSMOS 1844,1987-041A,2026-07-16T22:45:31.967424,14.14581088,.0031214,70.8998,121.5322,192.7190,167.3148,0,U,17973,999,2186,.42527E-4,.34E-6,0
SL-14 R/B,1987-055B,2026-07-17T01:24:30.039264,14.85727660,.001931,82.4969,227.0682,308.5770,51.3715,0,U,18153,999,8914,.171E-4,.173E-5,0
COSMOS 1867,1987-060A,2026-07-16T13:04:17.533632,14.31518582,.0017186,65.0119,305.8409,281.9924,77.9234,0,U,18187,999,3838,.96582E-5,-.75E-6,0
SL-14 R/B,1988-001B,2026-07-17T01:30:28.399680,14.85627385,.0018319,82.5118,73.6652,165.7253,194.4485,0,U,18749,999,6123,.20237E-4,.2E-5,0
COSMOS 1933,1988-020A,2026-07-16T21:10:51.515616,15.18895425,.0005879,82.5141,123.0269,103.1723,257.0167,0,U,18958,999,6983,.925E-4,.1961E-4,0
SL-3 R/B,1988-032B,2026-07-17T01:06:40.396896,15.21039722,.0026668,97.5276,181.0639,139.4923,220.8304,0,U,19046,999,7176,.99281E-4,.2152E-4,0
SL-16 R/B,1988-039B,2026-07-16T22:13:53.717088,14.19631477,.0020536,71.0127,155.2745,146.5709,213.6718,0,U,19120,999,97672,.33899E-5,-.41E-6,0
COSMOS 1953,1988-050A,2026-07-16T21:41:30.562944,15.30350178,.0011355,82.5062,28.0548,34.5825,325.6152,0,U,19210,999,5753,.12048E-3,.3576E-4,0
SL-8 R/B,1988-053B,2026-07-16T13:29:41.430912,14.38978716,.0019784,74.0456,234.9088,20.0654,91.9568,0,U,19257,999,99513,.45896E-4,.116E-5,0
COSMOS 1975,1988-093A,2026-07-16T20:32:47.389056,15.29673879,.001246,82.5203,347.8474,77.3903,282.8729,0,U,19573,999,3914,.1201E-3,.3494E-4,0
SL-14 R/B,1988-093B,2026-07-17T04:01:27.297120,14.85760729,.0019846,82.5315,280.5003,333.5750,48.1094,0,U,19574,999,2024,.19867E-4,.197E-5,0
SL-16 R/B,1988-102B,2026-07-17T02:17:27.474432,14.16166627,.00142,70.9975,239.2086,182.5220,177.5834,0,U,19650,999,94521,.22166E-4,-.4E-7,0
INTERCOSMOS 24,1989-080A,2026-07-16T22:58:20.019360,12.59692444,.1187089,82.6051,20.2670,352.8561,5.6820,0,U,20261,999,68307,.27746E-4,.107E-5,0
SL-14 R/B,1989-080C,2026-07-16T16:23:02.369184,12.50578679,.1228755,82.5932,90.3563,249.8872,96.6072,0,U,20262,999,67627,.19496E-4,.68E-6,0
DELTA 1 R/B,1989-089B,2026-07-16T12:46:50.520288,14.50748249,.0070623,97.0635,24.3947,75.8494,285.0538,0,U,20323,999,91441,.37158E-4,.116E-5,0
ARIANE 40 R/B,1990-005H,2026-07-16T17:11:08.627712,14.39941114,.0010372,98.2944,254.4115,169.5230,190.6176,0,U,20443,999,91137,.42922E-4,.93E-6,0
DELTA 2 R/B(1),1990-008B,2026-07-16T17:37:19.648416,15.73853612,.0058209,35.5996,37.2583,30.6255,329.7865,0,U,20453,999,94635,.51898E-3,.85639E-3,0
COSMOS 2058,1990-010A,2026-07-17T04:17:41.453664,15.12163192,.0008061,82.4674,279.7754,241.4724,118.5695,0,U,20465,999,96180,.10283E-3,.1803E-4,0
SL-14 R/B,1990-010B,2026-07-16T21:50:31.685280,14.83663624,.0018469,82.5036,146.0323,231.2196,128.7370,0,U,20466,999,94764,.18565E-4,.177E-5,0
