SL-12 R/B(2)            
1 15772U 85042D   26197.43822196  .00000042  00000+0  40311-4 0  9999
2 15772  71.1066 175.7152 0037351 284.3645 202.0898 14.22011021132698
SL-14 R/B               
1 15945U 85069B   26198.12335907  .00000219  00000+0  21850-4 0  9999
2 15945  82.5260 263.2128 0020140 121.2886 239.0306 14.86535914192065
SL-16 R/B               
1 16182U 85097B   26198.05799456  .00000224  00000+0  13610-3 0  9999
2 16182  71.0006 228.1908 0005729  47.9606 333.0176 14.16613647105557
SL-14 R/B               
1 16496U 86006B   26197.86244154  .00000240  00000+0  22608-4 0  9992
2 16496  82.5283 138.1889 0075605 203.2786 156.5002 14.86969084168408
COSMOS 1743             
1 16719U 86034A   26197.75163975  .00039394  00000+0  33033-3 0  9995
2 16719  82.5277 297.2339 0005456 171.8650 188.2701 15.69743756200428
SL-14 R/B               
1 16792U 86046B   26197.85465345  .00000233  00000+0  23967-4 0  9992
2 16792  82.4840 318.1429 0023667 157.6459 202.5794 14.85691260145586
SL-14 R/B               
1 16882U 86055B   26197.57786183  .00000195  00000+0  19667-4 0  9996
2 16882  82.5204   5.4962 0017312 265.2753 163.3331 14.85740804138506
AJISAI (EGS)            
1 16908U 86061A   26198.18035472 -.00000092  00000+0  34284-4 0  9997
2 16908  50.0102  55.1673 0011080 256.9811 217.8126 12.44516667484121
SL-14 R/B               
1 17567U 87024B   26197.84109975  .00000237  00000+0  24110-4 0  9998
2 17567  82.5299 331.3770 0017964 188.2179 171.8746 14.86232398107312
COSMOS 1833             
1 17589U 87027A   26197.91055032  .00000056  00000+0  55441-4 0  9997
2 17589  70.9212  54.3948 0024354   5.9443 354.1962 14.13067042 28579
SL-16 R/B               
1 17590U 87027B   26197.86144628  .00000177  00000+0  11158-3 0  9993
2 17590  71.0034   4.2944 0007147 279.9413  80.0904 14.17173992 33647
SL-14 R/B               
1 17912U 87038B   26197.90258282  .00000199  00000+0  20161-4 0  9999
2 17912  82.5014 175.0818 0020866  96.9733 263.3857 14.85462103 98411
COSMOS 1844             
1 17973U 87041A   26197.94828666  .00000034  00000+0  42527-4 0  9991
2 17973  70.8998 121.5322 0031214 192.7190 167.3148 14.14581088 21863
SL-14 R/B               
1 18153U 87055B   26198.05868101  .00000173  00000+0  17100-4 0  9991
2 18153  82.4969 227.0682 0019310 308.5770  51.3715 14.85727660 89149
COSMOS 1867             
1 18187U 87060A   26197.54464738 -.00000075  00000+0  96582-5 0  9999
2 18187  65.0119 305.8409 0017186 281.9924  77.9234 14.31518582 38388
SL-14 R/B               
1 18749U 88001B   26198.06282870  .00000200  00000+0  20237-4 0  9994
2 18749  82.5118  73.6652 0018319 165.7253 194.4485 14.85627385 61232
COSMOS 1933             
1 18958U 88020A   26197.88254069  .00001961  00000+0  92500-4 0  9992
2 18958  82.5141 123.0269 0005879 103.1723 257.0167 15.18895425 69835
SL-3 R/B                
1 19046U 88032B   26198.04630089  .00002152  00000+0  99281-4 0  9999
2 19046  97.5276 181.0639 0026668 139.4923 220.8304 15.21039722 71767
SL-16 R/B               
1 19120U 88039B   26197.92631617 -.00000041  00000+0  33899-5 0  9993
2 19120  71.0127 155.2745 0020536 146.5709 213.6718 14.19631477976722
COSMOS 1953             
1 19210U 88050A   26197.90382596  .00003576  00000+0  12048-3 0  9999
2 19210  82.5062  28.0548 0011355  34.5825 325.6152 15.30350178 57534
SL-8 R/B                
1 19257U 88053B   26197.56228508  .00000116  00000+0  45896-4 0  9992
2 19257  74.0456 234.9088 0019784  20.0654  91.9568 14.38978716995131
COSMOS 1975             
1 19573U 88093A   26197.85610404  .00003494  00000+0  12010-3 0  9992
2 19573  82.5203 347.8474 0012460  77.3903 282.8729 15.29673879 39148
SL-14 R/B               
1 19574U 88093B   26198.16767705  .00000197  00000+0  19867-4 0  9990
2 19574  82.5315 280.5003 0019846 333.5750  48.1094 14.85760729 20247
SL-16 R/B               
1 19650U 88102B   26198.09545688 -.00000004  00000+0  22166-4 0  9996
2 19650  70.9975 239.2086 0014200 182.5220 177.5834 14.16166627945213
INTERCOSMOS 24          
1 20261U 89080A   26197.95717615  .00000107  00000+0  27746-4 0  9999
2 20261  82.6051  20.2670 1187089 352.8561   5.6820 12.59692444683077
SL-14 R/B               
1 20262U 89080C   26197.68266631  .00000068  00000+0  19496-4 0  9996
2 20262  82.5932  90.3563 1228755 249.8872  96.6072 12.50578679676277
DELTA 1 R/B             
1 20323U 89089B   26197.53252917  .00000116  00000+0  37158-4 0  9998
2 20323  97.0635  24.3947 0070623  75.8494 285.0538 14.50748249914410
ARIANE 40 R/B           
1 20443U 90005H   26197.71607208  .00000093  00000+0  42922-4 0  9997
2 20443  98.2944 254.4115 0010372 169.5230 190.6176 14.39941114911370
DELTA 2 R/B(1)          
1 20453U 90008B   26197.73425519  .00085639  00000+0  51898-3 0  9996
2 20453  35.5996  37.2583 0058209  30.6255 329.7865 15.73853612946354
COSMOS 2058             
1 20465U 90010A   26198.17895201  .00001803  00000+0  10283-3 0  9994
2 20465  82.4674 279.7754 0008061 241.4724 118.5695 15.12163192961800
SL-14 R/B               
1 20466U 90010B   26197.91008895  .00000177  00000+0  18565-4 0  9996
2 20466  82.5036 146.0323 0018469 231.2196 128.7370 14.83663624947646
